XCUBE-1                 
1 62400U 24247Z   26068.48297321  .00009773  00000+0  36224-3 0  9994
2 62400  44.9938 117.7807 0005235 331.1499  28.9094 15.27910558 67702
STARLINK-35034          
1 65431U 25192AD  26068.76762357  .00020444  00000+0  70067-3 0  9999
2 65431  53.1602 232.1633 0001095  72.1645 287.9475 15.30190544 29395
